OBJECT_NAME,OBJECT_ID,EPOCH,MEAN_MOTION,ECCENTRICITY,INCLINATION,RA_OF_ASC_NODE,ARG_OF_PERICENTER,MEAN_ANOMALY,EPHEMERIS_TYPE,CLASSIFICATION_TYPE,NORAD_CAT_ID,ELEMENT_SET_NO,REV_AT_EPOCH,BSTAR,MEAN_MOTION_DOT,MEAN_MOTION_DDOT
ONEWEB-0534,2023-029B,2026-06-05T00:47:15.022464,13.20770891,.00018322,87.9179,276.8933,99.2566,260.8775,0,U,55797,999,15954,.26426037E-3,.12E-5,0
ONEWEB-0556,2023-029C,2026-06-05T06:24:14.306400,13.20774036,.00020643,87.9177,276.8463,74.6320,285.5041,0,U,55798,999,15957,.4249422E-3,.186E-5,0
ONEWEB-0562,2023-029D,2026-06-05T00:37:32.459232,13.20773508,.00026365,87.9178,276.8741,83.3760,276.7674,0,U,55799,999,15954,-.29586064E-4,.1E-7,0
ONEWEB-0563,2023-029E,2026-06-05T02:19:23.053440,13.20771705,.00016337,87.9194,276.8897,108.7422,251.3888,0,U,55800,999,15954,-.4497432E-5,.11E-6,0
ONEWEB-0564,2023-029F,2026-06-05T02:09:40.624128,13.20772734,.00022174,87.9193,276.8638,103.6020,256.5361,0,U,55801,999,15955,-.10230638E-4,.9E-7,0
ONEWEB-0638,2023-029G,2026-06-03T11:07:27.797952,13.14502063,.00021073,87.8945,292.4893,82.9123,277.2246,0,U,55802,999,15759,.3208963E-3,.132E-5,0
ONEWEB-0639,2023-029H,2026-06-05T03:05:17.789568,13.19727888,.00008215,87.9160,307.3788,100.4099,259.7127,0,U,55803,999,15731,.46625469E-3,.2E-5,0
ONEWEB-0640,2023-029J,2026-06-05T01:42:57.939552,13.14501803,.00017459,87.8947,292.1591,75.9423,284.1901,0,U,55804,999,15782,.30537252E-3,.126E-5,0
ONEWEB-0641,2023-029K,2026-06-05T02:58:27.374880,13.19727447,.00016597,87.9165,307.3681,97.2090,262.9231,0,U,55805,999,15732,.13826414E-3,.68E-6,0
ONEWEB-0642,2023-029L,2026-06-05T02:51:38.474784,13.19726969,.00010842,87.9160,307.3820,111.4822,248.6426,0,U,55806,999,15731,.18720958E-3,.88E-6,0
ONEWEB-0643,2023-029M,2026-06-05T02:49:11.866944,13.14502822,.00015056,87.8946,292.1373,118.2420,241.8862,0,U,55807,999,15780,.18045909E-3,.8E-6,0
ONEWEB-0644,2023-029N,2026-06-05T02:44:48.298560,13.19723428,.00016209,87.9147,307.3868,114.7781,245.3521,0,U,55808,999,15731,-.77831934E-4,-.18E-6,0
ONEWEB-0645,2023-029P,2026-06-04T23:38:17.670336,13.19727248,.00014105,87.9158,307.4074,85.2028,274.9265,0,U,55809,999,15729,.11300104E-3,.58E-6,0
ONEWEB-0646,2023-029Q,2026-06-02T19:17:14.038944,13.19725132,.00016884,87.9154,307.8422,106.1464,253.9854,0,U,55810,999,15699,-.17582837E-3,-.57E-6,0
ONEWEB-0648,2023-029R,2026-06-05T02:03:30.040704,13.14504257,.00009677,87.8956,292.1155,87.5978,272.5262,0,U,55811,999,15780,-.33666673E-3,-.112E-5,0
ONEWEB-0649,2023-029S,2026-06-05T04:18:03.962592,13.19727145,.00015574,87.9160,307.3666,92.8937,267.2374,0,U,55812,999,15734,-.1245941E-5,.12E-6,0
ONEWEB-0650,2023-029T,2026-06-05T04:11:13.123680,13.19740921,.00013959,87.9158,307.3699,101.7375,258.3914,0,U,55813,999,15731,.37760913E-2,.1525E-4,0
ONEWEB-0652,2023-029U,2026-06-05T01:36:06.717024,13.14503519,.00020286,87.8952,292.1276,97.7471,262.3889,0,U,55814,999,15777,.41766892E-3,.168E-5,0
ONEWEB-0653,2023-029V,2026-06-05T06:42:06.108768,13.14504028,.00019324,87.8954,292.0826,97.4486,262.6864,0,U,55815,999,15783,.92223032E-3,.355E-5,0
ONEWEB-0654,2023-029W,2026-06-05T02:56:02.476896,13.14502958,.00022396,87.8953,292.1104,95.4138,264.7247,0,U,55816,999,15783,.19672264E-3,.86E-6,0
ONEWEB-0656,2023-029X,2026-06-05T07:27:15.940224,13.20772289,.00023125,87.9192,276.7965,97.4128,262.7268,0,U,55817,999,15958,.23270619E-3,.108E-5,0
ONEWEB-0657,2023-029Y,2026-06-02T19:39:58.327776,13.19726362,.00023329,87.9159,307.8384,110.6459,249.4924,0,U,55818,999,15701,-.969077E-4,-.26E-6,0
ONEWEB-0658,2023-029Z,2026-06-03T11:55:43.699584,13.19726967,.0001418,87.9168,307.6776,100.8472,259.2820,0,U,55819,999,15711,-.35805E-4,-.1E-7,0
ONEWEB-0660,2023-029AA,2026-06-05T02:24:03.851712,13.14503068,.00016614,87.8962,292.1063,90.2586,269.8734,0,U,55820,999,15781,-.3784698E-3,-.128E-5,0
ONEWEB-0661,2023-029AB,2026-06-03T11:02:53.902176,13.14501994,.00015404,87.8943,292.4801,87.3980,272.7326,0,U,55821,999,15758,.55432756E-3,.218E-5,0
ONEWEB-0662,2023-029AC,2026-06-05T02:14:55.750848,13.14501540,.0001657,87.8944,292.1610,90.1234,270.0086,0,U,55822,999,15784,-.58512958E-3,-.204E-5,0
ONEWEB-0663,2023-029AD,2026-06-05T06:27:57.169152,13.20868860,.00014413,87.9193,276.8760,93.2036,266.9263,0,U,55823,999,15957,.33892793E-3,.151E-5,0
ONEWEB-0664,2023-029AE,2026-06-05T01:40:34.430016,13.20771554,.00020562,87.9177,276.8984,86.6023,273.5345,0,U,55824,999,15954,.14517027E-3,.72E-6,0
ONEWEB-0665,2023-029AF,2026-06-05T03:09:44.986752,13.14502098,.00016251,87.8946,292.1282,93.7009,266.4306,0,U,55825,999,15782,.52936798E-3,.209E-5,0
ONEWEB-0666,2023-029AG,2026-06-05T01:30:53.223264,13.20769399,.00024981,87.9177,276.8895,112.6427,247.4971,0,U,55826,999,15955,.34761735E-4,.27E-6,0
